Results
*******************************************************************************
 Revised: Aug 07, 2025              Tarvos  / (Saturn)                      621

 For mean orbital elements, see https://ssd.jpl.nasa.gov/sats/elem/
 Recently discovered Saturnian irregular.
*******************************************************************************


*******************************************************************************
Ephemeris / API_USER Mon Dec  1 23:12:11 2025 Pasadena, USA      / Horizons    
*******************************************************************************
Target body name: Tarvos (621)                    {source: sat456_merged_DE440}
Center body name: Earth (399)                     {source: sat456_merged_DE440}
Center-site name: GEOCENTRIC
*******************************************************************************
Start time      : A.D. 2020-Jan-01 00:00:00.0000 UT      
Stop  time      : A.D. 2020-Dec-20 00:00:00.0000 UT      
Step-size       : 1440 minutes
*******************************************************************************
Target pole/equ : undefined
Target radii    : undefined                                                    
Center geodetic : 0.0, 0.0, -6378.137             {E-lon(deg),Lat(deg),Alt(km)}
Center cylindric: 0.0, 0.0, 0.0                   {E-lon(deg),Dxy(km),Dz(km)}
Center pole/equ : ITRF93                          {East-longitude positive}
Center radii    : 6378.137, 6378.137, 6356.752 km {Equator_a, b, pole_c}       
Target primary  : Saturn
Vis. interferer : MOON (R_eq= 1737.400) km        {source: sat456_merged_DE440}
Rel. light bend : Sun                             {source: sat456_merged_DE440}
Rel. lght bnd GM: 1.3271E+11 km^3/s^2                                          
Atmos refraction: NO (AIRLESS)
RA format       : HMS
Time format     : CAL 
Calendar mode   : Mixed Julian/Gregorian
EOP file        : eop.251201.p260227                                           
EOP coverage    : DATA-BASED 1962-JAN-20 TO 2025-DEC-01. PREDICTS-> 2026-FEB-26
Units conversion: 1 au= 149597870.700 km, c= 299792.458 km/s, 1 day= 86400.0 s 
Table cut-offs 1: Elevation (-90.0deg=NO ),Airmass (>38.000=NO), Daylight (NO )
Table cut-offs 2: Solar elongation (  0.0,180.0=NO ),Local Hour Angle( 0.0=NO )
Table cut-offs 3: RA/DEC angular rate (     0.0=NO )                           
**************************************************************************************************************************
 Date__(UT)__HR:MN     R.A._____(ICRF)_____DEC    APmag   S-brt             delta      deldot     S-O-T /r     S-T-O  Cnst
**************************************************************************************************************************
$$SOE
 2020-Feb-28 00:00     19 55 39.11 -20 33 33.0     n.a.    n.a.  10.8096731028797 -18.7801210   41.6681 /L    3.7385   Sgr
 2020-Feb-29 00:00     19 56 04.09 -20 32 34.9     n.a.    n.a.  10.7987287087446 -19.1186181   42.5740 /L    3.8055   Sgr
 2020-Mar-01 00:00     19 56 28.83 -20 31 37.2     n.a.    n.a.  10.7875903311827 -19.4518580   43.4803 /L    3.8716   Sgr
 2020-Mar-02 00:00     19 56 53.35 -20 30 39.9     n.a.    n.a.  10.7762610298700 -19.7797619   44.3869 /L    3.9368   Sgr
 2020-Mar-03 00:00     19 57 17.64 -20 29 43.1     n.a.    n.a.  10.7647439058290 -20.1022660   45.2938 /L    4.0011   Sgr
 2020-Mar-04 00:00     19 57 41.68 -20 28 46.8     n.a.    n.a.  10.7530420914796 -20.4193265   46.2011 /L    4.0645   Sgr
 2020-Mar-05 00:00     19 58 05.49 -20 27 50.9     n.a.    n.a.  10.7411587366998 -20.7309284   47.1087 /L    4.1269   Sgr
 2020-Mar-06 00:00     19 58 29.06 -20 26 55.5     n.a.    n.a.  10.7290969895393 -21.0370947   48.0167 /L    4.1883   Sgr
 2020-Mar-07 00:00     19 58 52.38 -20 26 00.6     n.a.    n.a.  10.7168599715709 -21.3378949   48.9250 /L    4.2487   Sgr
 2020-Mar-08 00:00     19 59 15.44 -20 25 06.3     n.a.    n.a.  10.7044507505642 -21.6334449   49.8338 /L    4.3082   Sgr
 2020-Mar-09 00:00     19 59 38.26 -20 24 12.5     n.a.    n.a.  10.6918723168737 -21.9238930   50.7430 /L    4.3666   Sgr
 2020-Mar-10 00:00     20 00 00.82 -20 23 19.3     n.a.    n.a.  10.6791275728031 -22.2093895   51.6527 /L    4.4241   Sgr
 2020-Mar-11 00:00     20 00 23.11 -20 22 26.6     n.a.    n.a.  10.6662193432629 -22.4900452   52.5629 /L    4.4804   Sgr
 2020-Mar-12 00:00     20 00 45.14 -20 21 34.6     n.a.    n.a.  10.6531504095963 -22.7658954   53.4735 /L    4.5358   Sgr
 2020-Mar-13 00:00     20 01 06.91 -20 20 43.2     n.a.    n.a.  10.6399235591115 -23.0368836   54.3848 /L    4.5900   Sgr
 2020-Mar-14 00:00     20 01 28.40 -20 19 52.5     n.a.    n.a.  10.6265416366669 -23.3028703   55.2967 /L    4.6432   Sgr
 2020-Mar-15 00:00     20 01 49.61 -20 19 02.4     n.a.    n.a.  10.6130075856990 -23.5636586   56.2091 /L    4.6953   Sgr
 2020-Mar-16 00:00     20 02 10.55 -20 18 12.9     n.a.    n.a.  10.5993244726544 -23.8190240   57.1222 /L    4.7462   Sgr
 2020-Mar-17 00:00     20 02 31.20 -20 17 24.2     n.a.    n.a.  10.5854954957871 -24.0687377   58.0360 /L    4.7960   Sgr
 2020-Mar-18 00:00     20 02 51.57 -20 16 36.2     n.a.    n.a.  10.5715239831165 -24.3125807   58.9504 /L    4.8447   Sgr
 2020-Mar-19 00:00     20 03 11.64 -20 15 48.9     n.a.    n.a.  10.5574133847634 -24.5503497   59.8655 /L    4.8922   Sgr
 2020-Mar-20 00:00     20 03 31.42 -20 15 02.4     n.a.    n.a.  10.5431672634339 -24.7818580   60.7813 /L    4.9385   Sgr
 2020-Mar-21 00:00     20 03 50.89 -20 14 16.6     n.a.    n.a.  10.5287892850861 -25.0069345   61.6978 /L    4.9836   Sgr
 2020-Mar-22 00:00     20 04 10.06 -20 13 31.7     n.a.    n.a.  10.5142832103607 -25.2254222   62.6149 /L    5.0275   Sgr
 2020-Mar-23 00:00     20 04 28.93 -20 12 47.5     n.a.    n.a.  10.4996528866170 -25.4371778   63.5328 /L    5.0702   Sgr
 2020-Mar-24 00:00     20 04 47.48 -20 12 04.2     n.a.    n.a.  10.4849022401335 -25.6420715   64.4513 /L    5.1116   Sgr
 2020-Mar-25 00:00     20 05 05.72 -20 11 21.7     n.a.    n.a.  10.4700352680696 -25.8399876   65.3705 /L    5.1517   Sgr
 2020-Mar-26 00:00     20 05 23.63 -20 10 40.1     n.a.    n.a.  10.4550560300003 -26.0308258   66.2904 /L    5.1906   Sgr
 2020-Mar-27 00:00     20 05 41.23 -20 09 59.4     n.a.    n.a.  10.4399686390568 -26.2145011   67.2110 /L    5.2281   Sgr
 2020-Mar-28 00:00     20 05 58.50 -20 09 19.6     n.a.    n.a.  10.4247772528406 -26.3909444   68.1323 /L    5.2644   Sgr
 2020-Mar-29 00:00     20 06 15.45 -20 08 40.6     n.a.    n.a.  10.4094860642344 -26.5601027   69.0543 /L    5.2993   Sgr
 2020-Mar-30 00:00     20 06 32.06 -20 08 02.7     n.a.    n.a.  10.3940992920119 -26.7219395   69.9770 /L    5.3329   Sgr
 2020-Mar-31 00:00     20 06 48.33 -20 07 25.6     n.a.    n.a.  10.3786211707972 -26.8764369   70.9003 /L    5.3652   Sgr
 2020-Apr-01 00:00     20 07 04.27 -20 06 49.5     n.a.    n.a.  10.3630559395468 -27.0235985   71.8244 /L    5.3961   Sgr
 2020-Apr-02 00:00     20 07 19.88 -20 06 14.4     n.a.    n.a.  10.3474078274868 -27.1634554   72.7492 /L    5.4256   Cap
 2020-Apr-03 00:00     20 07 35.13 -20 05 40.3     n.a.    n.a.  10.3316810365944 -27.2960720   73.6746 /L    5.4537   Cap
 2020-Apr-04 00:00     20 07 50.05 -20 05 07.2     n.a.    n.a.  10.3158797205933 -27.4215514   74.6008 /L    5.4805   Cap
 2020-Apr-05 00:00     20 08 04.62 -20 04 35.1     n.a.    n.a.  10.3000079623779 -27.5400350   75.5278 /L    5.5058   Cap
 2020-Apr-06 00:00     20 08 18.84 -20 04 04.1     n.a.    n.a.  10.2840697546960 -27.6516905   76.4555 /L    5.5298   Cap
 2020-Apr-07 00:00     20 08 32.71 -20 03 34.1     n.a.    n.a.  10.2680689917040 -27.7566860   77.3840 /L    5.5523   Cap
 2020-Apr-08 00:00     20 08 46.22 -20 03 05.1     n.a.    n.a.  10.2520094793295 -27.8551523   78.3133 /L    5.5734   Cap
 2020-Apr-09 00:00     20 08 59.38 -20 02 37.3     n.a.    n.a.  10.2358949678984 -27.9471458   79.2435 /L    5.5931   Cap
 2020-Apr-10 00:00     20 09 12.19 -20 02 10.5     n.a.    n.a.  10.2197292019575 -28.0326288   80.1745 /L    5.6113   Cap
 2020-Apr-11 00:00     20 09 24.63 -20 01 44.8     n.a.    n.a.  10.2035159744333 -28.1114747   81.1065 /L    5.6281   Cap
 2020-Apr-12 00:00     20 09 36.71 -20 01 20.2     n.a.    n.a.  10.1872591708364 -28.1834950   82.0394 /L    5.6434   Cap
 2020-Apr-13 00:00     20 09 48.43 -20 00 56.8     n.a.    n.a.  10.1709627949569 -28.2484742   82.9733 /L    5.6572   Cap
 2020-Apr-14 00:00     20 09 59.78 -20 00 34.5     n.a.    n.a.  10.1546309757736 -28.3061982   83.9083 /L    5.6695   Cap
 2020-Apr-15 00:00     20 10 10.75 -20 00 13.3     n.a.    n.a.  10.1382679609643 -28.3564719   84.8442 /L    5.6803   Cap
 2020-Apr-16 00:00     20 10 21.36 -19 59 53.3     n.a.    n.a.  10.1218781037702 -28.3991252   85.7811 /L    5.6896   Cap
 2020-Apr-17 00:00     20 10 31.59 -19 59 34.5     n.a.    n.a.  10.1054658484370 -28.4340125   86.7191 /L    5.6974   Cap
 2020-Apr-18 00:00     20 10 41.44 -19 59 16.8     n.a.    n.a.  10.0890357170983 -28.4610090   87.6581 /L    5.7037   Cap
 2020-Apr-19 00:00     20 10 50.91 -19 59 00.4     n.a.    n.a.  10.0725922990161 -28.4800064   88.5982 /L    5.7084   Cap
 2020-Apr-20 00:00     20 10 59.99 -19 58 45.2     n.a.    n.a.  10.0561402418940 -28.4909103   89.5393 /L    5.7115   Cap
 2020-Apr-21 00:00     20 11 08.70 -19 58 31.1     n.a.    n.a.  10.0396842444204 -28.4936386   90.4814 /L    5.7131   Cap
 2020-Apr-22 00:00     20 11 17.01 -19 58 18.3     n.a.    n.a.  10.0232290490723 -28.4881218   91.4246 /L    5.7131   Cap
 2020-Apr-23 00:00     20 11 24.94 -19 58 06.8     n.a.    n.a.  10.0067794343457 -28.4743050   92.3689 /L    5.7116   Cap
 2020-Apr-24 00:00     20 11 32.49 -19 57 56.5     n.a.    n.a.  9.99034020586703 -28.4521496   93.3142 /L    5.7085   Cap
 2020-Apr-25 00:00     20 11 39.64 -19 57 47.4     n.a.    n.a.  9.97391618618223 -28.4216359   94.2605 /L    5.7038   Cap
